{"type": "FeatureCollection", "features": [ {"type": "Feature", "properties": {"norad_id": 34529, "name": "IRIDIUM 33 DEB", "group": "iridium-33-debris", "lat": 23.192892111063113, "lon": -148.1586479237365, "alt_km": 752.3695962994907, "timestamp": "2025-12-17T10:52:54.737359+00:00", "meta": {"OBJECT_NAME": "IRIDIUM 33 DEB", "OBJECT_ID": "1997-051HW", "EPOCH": "2025-12-16T04:09:03.226464", "MEAN_MOTION": 14.4061845, "ECCENTRICITY": 0.00052348, "INCLINATION": 86.3638, "RA_OF_ASC_NODE": 33.9483, "ARG_OF_PERICENTER": 166.2156, "MEAN_ANOMALY": 193.9188, "EPHEMERIS_TYPE": 0, "CLASSIFICATION_TYPE": "U", "NORAD_CAT_ID": 34529, "ELEMENT_SET_NO": 999, "REV_AT_EPOCH": 88191, "BSTAR": 0.00010343684, "MEAN_MOTION_DOT": 3.5e-06, "MEAN_MOTION_DDOT": 0}, "tle": {"line1": "1 34529U 97051HW  25350.17295401  .00000350  00000+0  10344-3 0  9991", "line2": "2 34529  86.3638  33.9483 0005234 166.2156 193.9188 14.40618450881919"}}, "geometry": {"type": "Point", "coordinates": [-148.1586479237365, 23.192892111063113]}}, {"type": "Feature", "properties": {"norad_id": 34538, "name": "IRIDIUM 33 DEB", "group": "iridium-33-debris", "lat": 28.617479059823104, "lon": 5.5280387363944925, "alt_km": 743.0908084111079, "timestamp": "2025-12-17T10:52:54.737369+00:00", "meta": {"OBJECT_NAME": "IRIDIUM 33 DEB", "OBJECT_ID": "1997-051JF", "EPOCH": "2025-12-16T12:08:56.673600", "MEAN_MOTION": 14.42671094, "ECCENTRICITY": 0.00324408, "INCLINATION": 86.2768, "RA_OF_ASC_NODE": 3.9067, "ARG_OF_PERICENTER": 315.1115, "MEAN_ANOMALY": 197.0404, "EPHEMERIS_TYPE": 0, "CLASSIFICATION_TYPE": "U", "NORAD_CAT_ID": 34538, "ELEMENT_SET_NO": 999, "REV_AT_EPOCH": 87810, "BSTAR": 0.00069604721, "MEAN_MOTION_DOT": 2.347e-05, "MEAN_MOTION_DDOT": 0}, "tle": {"line1": "1 34538U 97051JF  25350.50621150  .00002347  00000+0  69605-3 0  9994", "line2": "2 34538  86.2768   3.9067 0032440 315.1115 197.0404 14.42671094878104"}}, "geometry": {"type": "Point", "coordinates": [5.5280387363944925, 28.617479059823104]}}, {"type": "Feature", "properties": {"norad_id": 34540, "name": "IRIDIUM 33 DEB", "group": "iridium-33-debris", "lat": -78.45788339340673, "lon": -72.97103728216841, "alt_km": 660.2273575421541, "timestamp": "2025-12-17T10:52:54.737379+00:00", "meta": {"OBJECT_NAME": "IRIDIUM 33 DEB", "OBJECT_ID": "1997-051JH", "EPOCH": "2025-12-16T22:31:00.894720", "MEAN_MOTION": 14.75409627, "ECCENTRICITY": 0.00170863, "INCLINATION": 86.3099, "RA_OF_ASC_NODE": 305.6869, "ARG_OF_PERICENTER": 144.3412, "MEAN_ANOMALY": 281.7775, "EPHEMERIS_TYPE": 0, "CLASSIFICATION_TYPE": "U", "NORAD_CAT_ID": 34540, "ELEMENT_SET_NO": 999, "REV_AT_EPOCH": 89083, "BSTAR": 0.0012022226, "MEAN_MOTION_DOT": 8.208e-05, "MEAN_MOTION_DDOT": 0}, "tle": {"line1": "1 34540U 97051JH  25350.93820480  .00008208  00000+0  12022-2 0  9993", "line2": "2 34540  86.3099 305.6869 0017086 144.3412 281.7775 14.75409627890831"}}, "geometry": {"type": "Point", "coordinates": [-72.97103728216841, -78.45788339340673]}}, {"type": "Feature", "properties": {"norad_id": 34648, "name": "IRIDIUM 33 DEB", "group": "iridium-33-debris", "lat": 67.53194471502697, "lon": -71.1774143153205, "alt_km": 952.3098289434238, "timestamp": "2025-12-17T10:52:54.737389+00:00", "meta": {"OBJECT_NAME": "IRIDIUM 33 DEB", "OBJECT_ID": "1997-051JZ", "EPOCH": "2025-12-16T12:26:32.846208", "MEAN_MOTION": 14.11615527, "ECCENTRICITY": 0.01816215, "INCLINATION": 86.3905, "RA_OF_ASC_NODE": 280.4208, "ARG_OF_PERICENTER": 287.0786, "MEAN_ANOMALY": 71.0574, "EPHEMERIS_TYPE": 0, "CLASSIFICATION_TYPE": "U", "NORAD_CAT_ID": 34648, "ELEMENT_SET_NO": 999, "REV_AT_EPOCH": 85014, "BSTAR": 0.0054188563, "MEAN_MOTION_DOT": 0.00011523, "MEAN_MOTION_DDOT": 0}, "tle": {"line1": "1 34648U 97051JZ  25350.51843572  .00011523  00000+0  54189-2 0  9997", "line2": "2 34648  86.3905 280.4208 0181621 287.0786  71.0574 14.11615527850144"}}, "geometry": {"type": "Point", "coordinates": [-71.1774143153205, 67.53194471502697]}}, {"type": "Feature", "properties": {"norad_id": 34651, "name": "IRIDIUM 33 DEB", "group": "iridium-33-debris", "lat": 6.260263920206323, "lon": 138.98069816734522, "alt_km": 909.7661630118628, "timestamp": "2025-12-17T10:52:54.737400+00:00", "meta": {"OBJECT_NAME": "IRIDIUM 33 DEB", "OBJECT_ID": "1997-051KC", "EPOCH": "2025-12-16T21:22:39.844416", "MEAN_MOTION": 14.25886119, "ECCENTRICITY": 0.01422439, "INCLINATION": 86.2825, "RA_OF_ASC_NODE": 138.8115, "ARG_OF_PERICENTER": 190.7823, "MEAN_ANOMALY": 169.0312, "EPHEMERIS_TYPE": 0, "CLASSIFICATION_TYPE": "U", "NORAD_CAT_ID": 34651, "ELEMENT_SET_NO": 999, "REV_AT_EPOCH": 85955, "BSTAR": 0.0025009012, "MEAN_MOTION_DOT": 6.641e-05, "MEAN_MOTION_DDOT": 0}, "tle": {"line1": "1 34651U 97051KC  25350.89073894  .00006641  00000+0  25009-2 0  9998", "line2": "2 34651  86.2825 138.8115 0142243 190.7823 169.0312 14.25886119859554"}}, "geometry": {"type": "Point", "coordinates": [138.98069816734522, 6.260263920206323]}}, {"type": "Feature", "properties": {"norad_id": 34652, "name": "IRIDIUM 33 DEB", "group": "iridium-33-debris", "lat": -48.63211864890909, "lon": -26.275133212402377, "alt_km": 677.6707793046762, "timestamp": "2025-12-17T10:52:54.737410+00:00", "meta": {"OBJECT_NAME": "IRIDIUM 33 DEB", "OBJECT_ID": "1997-051KD", "EPOCH": "2025-12-16T23:51:48.766752", "MEAN_MOTION": 14.62098936, "ECCENTRICITY": 0.00256549, "INCLINATION": 86.3313, "RA_OF_ASC_NODE": 338.1074, "ARG_OF_PERICENTER": 282.6722, "MEAN_ANOMALY": 133.581, "EPHEMERIS_TYPE": 0, "CLASSIFICATION_TYPE": "U", "NORAD_CAT_ID": 34652, "ELEMENT_SET_NO": 999, "REV_AT_EPOCH": 88546, "BSTAR": 0.00074140559, "MEAN_MOTION_DOT": 3.763e-05, "MEAN_MOTION_DDOT": 0}, "tle": {"line1": "1 34652U 97051KD  25350.99431443  .00003763  00000+0  74141-3 0  9992", "line2": "2 34652  86.3313 338.1074 0025654 282.6722 133.5810 14.62098936885463"}}, "geometry": {"type": "Point", "coordinates": [-26.275133212402377, -48.63211864890909]}}, {"type": "Feature", "properties": {"norad_id": 34690, "name": "IRIDIUM 33 DEB", "group": "iridium-33-debris", "lat": 55.63692470869286, "lon": 40.25819031096506, "alt_km": 698.2909375940135, "timestamp": "2025-12-17T10:52:54.737419+00:00", "meta": {"OBJECT_NAME": "IRIDIUM 33 DEB", "OBJECT_ID": "1997-051KM", "EPOCH": "2025-12-16T09:55:15.693312", "MEAN_MOTION": 14.55109734, "ECCENTRICITY": 0.00103944, "INCLINATION": 86.3782, "RA_OF_ASC_NODE": 35.3951, "ARG_OF_PERICENTER": 17.6085, "MEAN_ANOMALY": 353.5681, "EPHEMERIS_TYPE": 0, "CLASSIFICATION_TYPE": "U", "NORAD_CAT_ID": 34690, "ELEMENT_SET_NO": 999, "REV_AT_EPOCH": 88148, "BSTAR": 0.00032549002, "MEAN_MOTION_DOT": 1.426e-05, "MEAN_MOTION_DDOT": 0}, "tle": {"line1": "1 34690U 97051KM  25350.41337608  .00001426  00000+0  32549-3 0  9999", "line2": "2 34690  86.3782  35.3951 0010394  17.6085 353.5681 14.55109734881487"}}, "geometry": {"type": "Point", "coordinates": [40.25819031096506, 55.63692470869286]}}, {"type": "Feature", "properties": {"norad_id": 34693, "name": "IRIDIUM 33 DEB", "group": "iridium-33-debris", "lat": -85.86463767965114, "lon": -175.1456358873806, "alt_km": 492.2164973264007, "timestamp": "2025-12-17T10:52:54.737430+00:00", "meta": {"OBJECT_NAME": "IRIDIUM 33 DEB", "OBJECT_ID": "1997-051KQ", "EPOCH": "2025-12-16T21:25:18.444576", "MEAN_MOTION": 15.28941995, "ECCENTRICITY": 0.00125804, "INCLINATION": 86.3045, "RA_OF_ASC_NODE": 301.7597, "ARG_OF_PERICENTER": 45.7689, "MEAN_ANOMALY": 17.5251, "EPHEMERIS_TYPE": 0, "CLASSIFICATION_TYPE": "U", "NORAD_CAT_ID": 34693, "ELEMENT_SET_NO": 999, "REV_AT_EPOCH": 88978, "BSTAR": 0.0037873204, "MEAN_MOTION_DOT": 0.00108025, "MEAN_MOTION_DDOT": 0}, "tle": {"line1": "1 34693U 97051KQ  25350.89257459  .00108025  00000+0  37873-2 0  9996", "line2": "2 34693  86.3045 301.7597 0012580  45.7689  17.5251 15.28941995889784"}}, "geometry": {"type": "Point", "coordinates": [-175.1456358873806, -85.86463767965114]}}, {"type": "Feature", "properties": {"norad_id": 34696, "name": "IRIDIUM 33 DEB", "group": "iridium-33-debris", "lat": 5.3277192164251215, "lon": 25.68608612488126, "alt_km": 721.5388148008606, "timestamp": "2025-12-17T10:52:54.737440+00:00", "meta": {"OBJECT_NAME": "IRIDIUM 33 DEB", "OBJECT_ID": "1997-051KT", "EPOCH": "2025-12-16T02:20:41.724096", "MEAN_MOTION": 14.6527848, "ECCENTRICITY": 0.00739247, "INCLINATION": 86.1857, "RA_OF_ASC_NODE": 25.9602, "ARG_OF_PERICENTER": 156.1552, "MEAN_ANOMALY": 262.9531, "EPHEMERIS_TYPE": 0, "CLASSIFICATION_TYPE": "U", "NORAD_CAT_ID": 34696, "ELEMENT_SET_NO": 999, "REV_AT_EPOCH": 86722, "BSTAR": 0.0030139248, "MEAN_MOTION_DOT": 0.00016962, "MEAN_MOTION_DDOT": 0}, "tle": {"line1": "1 34696U 97051KT  25350.09770514  .00016962  00000+0  30139-2 0  9999", "line2": "2 34696  86.1857  25.9602 0073924 156.1552 262.9531 14.65278480867227"}}, "geometry": {"type": "Point", "coordinates": [25.68608612488126, 5.3277192164251215]}}, {"type": "Feature", "properties": {"norad_id": 34765, "name": "IRIDIUM 33 DEB", "group": "iridium-33-debris", "lat": -16.63319962730178, "lon": -148.16467726378386, "alt_km": 750.6441850878009, "timestamp": "2025-12-17T10:52:54.737450+00:00", "meta": {"OBJECT_NAME": "IRIDIUM 33 DEB", "OBJECT_ID": "1997-051LJ", "EPOCH": "2025-12-15T13:40:10.093728", "MEAN_MOTION": 14.40472042, "ECCENTRICITY": 0.00157365, "INCLINATION": 86.3391, "RA_OF_ASC_NODE": 31.5475, "ARG_OF_PERICENTER": 201.7387, "MEAN_ANOMALY": 311.9184, "EPHEMERIS_TYPE": 0, "CLASSIFICATION_TYPE": "U", "NORAD_CAT_ID": 34765, "ELEMENT_SET_NO": 999, "REV_AT_EPOCH": 87654, "BSTAR": 0.00038671785, "MEAN_MOTION_DOT": 1.25e-05, "MEAN_MOTION_DDOT": 0}, "tle": {"line1": "1 34765U 97051LJ  25349.56956127  .00001250  00000+0  38672-3 0  9997", "line2": "2 34765  86.3391  31.5475 0015736 201.7387 311.9184 14.40472042876547"}}, "geometry": {"type": "Point", "coordinates": [-148.16467726378386, -16.63319962730178]}}]}